{
  "norad_id": 44299,
  "name": "COSMOS 2534 [GLONASS-M]",
  "history": [
    {
      "epoch": "2026-03-26T22:51:06.084864Z",
      "apogee_km": 19156.87799453883,
      "perigee_km": 19102.867334874783,
      "latitude_deg": 44.653430562503864,
      "longitude_deg": 56.42890951785754,
      "height_km": 19153.570515973635,
      "semi_major_axis_km": 25508.009664706806,
      "eccentricity": 0.0010587,
      "inclination_deg": 64.3675,
      "raan_deg": 195.3834,
      "arg_perigee_deg": 278.5139,
      "mean_anomaly_deg": 132.529,
      "mean_motion_rev_day": 2.13102185
    },
    {
      "epoch": "2026-03-30T04:21:41.668128Z",
      "apogee_km": 19157.155332743536,
      "perigee_km": 19102.577388433085,
      "latitude_deg": 7.939635286935867,
      "longitude_deg": -53.90367848813896,
      "height_km": 19129.981740125182,
      "semi_major_axis_km": 25508.003360588307,
      "eccentricity": 0.00106982,
      "inclination_deg": 64.3672,
      "raan_deg": 195.2746,
      "arg_perigee_deg": 278.3236,
      "mean_anomaly_deg": 90.3463,
      "mean_motion_rev_day": 2.13102264
    },
    {
      "epoch": "2026-04-02T11:14:14.906976Z",
      "apogee_km": 19157.509922488596,
      "perigee_km": 19102.190240744952,
      "latitude_deg": 9.092222337955766,
      "longitude_deg": -159.82783484539777,
      "height_km": 19130.613640123658,
      "semi_major_axis_km": 25507.987081616775,
      "eccentricity": 0.00108436,
      "inclination_deg": 64.367,
      "raan_deg": 195.1642,
      "arg_perigee_deg": 278.2113,
      "mean_anomaly_deg": 91.7529,
      "mean_motion_rev_day": 2.13102468
    },
    {
      "epoch": "2026-04-03T19:45:58.317696Z",
      "apogee_km": 19157.888934765782,
      "perigee_km": 19101.80707892973,
      "latitude_deg": -26.983488682331263,
      "longitude_deg": 52.37159942218259,
      "height_km": 19120.700910929183,
      "semi_major_axis_km": 25507.985006847757,
      "eccentricity": 0.0010993,
      "inclination_deg": 64.367,
      "raan_deg": 195.1188,
      "arg_perigee_deg": 277.9111,
      "mean_anomaly_deg": 51.8442,
      "mean_motion_rev_day": 2.13102494
    },
    {
      "epoch": "2026-04-08T23:26:08.318688Z",
      "apogee_km": 19157.727352937065,
      "perigee_km": 19101.964351623694,
      "latitude_deg": -32.94765578238729,
      "longitude_deg": -11.891573508705738,
      "height_km": 19120.823664571846,
      "semi_major_axis_km": 25507.98285228038,
      "eccentricity": 0.00109305,
      "inclination_deg": 64.3666,
      "raan_deg": 194.9456,
      "arg_perigee_deg": 277.8745,
      "mean_anomaly_deg": 45.0202,
      "mean_motion_rev_day": 2.13102521
    },
    {
      "epoch": "2026-04-13T01:39:27.952128Z",
      "apogee_km": 19158.82504324173,
      "perigee_km": 19100.91166788246,
      "latitude_deg": -37.58815233716708,
      "longitude_deg": 170.28726770787438,
      "height_km": 19125.91744561547,
      "semi_major_axis_km": 25508.005355562094,
      "eccentricity": 0.0011352,
      "inclination_deg": 64.3661,
      "raan_deg": 194.808,
      "arg_perigee_deg": 277.3743,
      "mean_anomaly_deg": 305.2203,
      "mean_motion_rev_day": 2.13102239
    },
    {
      "epoch": "2026-04-14T06:35:59.473824Z",
      "apogee_km": 19158.839891938995,
      "perigee_km": 19100.84494992756,
      "latitude_deg": 56.64590006236826,
      "longitude_deg": -60.06138747879423,
      "height_km": 19163.73958504908,
      "semi_major_axis_km": 25507.979420933276,
      "eccentricity": 0.0011368,
      "inclination_deg": 64.3664,
      "raan_deg": 194.7672,
      "arg_perigee_deg": 277.0512,
      "mean_anomaly_deg": 150.689,
      "mean_motion_rev_day": 2.13102564
    },
    {
      "epoch": "2026-04-15T14:58:16.937760Z",
      "apogee_km": 19158.848029335855,
      "perigee_km": 19100.842877237083,
      "latitude_deg": 20.302664574263495,
      "longitude_deg": 136.56008737784236,
      "height_km": 19137.99669405388,
      "semi_major_axis_km": 25507.98245328647,
      "eccentricity": 0.001137,
      "inclination_deg": 64.3664,
      "raan_deg": 194.7218,
      "arg_perigee_deg": 277.1005,
      "mean_anomaly_deg": 105.4064,
      "mean_motion_rev_day": 2.13102526
    }
  ]
}